{
  "type": "Feature",
  "properties": {
    "description": "Forecasted spill spread envelope at end of simulation",
    "forecast_start_time": "2018-08-20T12:00:00Z",
    "forecast_end_time": "2018-08-21T12:00:00Z",
    "duration_hours": 24
  },
  "geometry": {
    "type": "Polygon",
    "coordinates": [
      [
        [
          -89.19189050744875,
          29.213130179948422
        ],
        [
          -89.20459192693721,
          29.204147972285874
        ],
        [
          -89.20058993881973,
          29.181211701555224
        ],
        [
          -89.18113213426189,
          29.0794077540063
        ],
        [
          -89.12992558751552,
          28.87545677517046
        ],
        [
          -89.01428775322375,
          28.850118635759408
        ],
        [
          -88.49465217375779,
          28.822280780022176
        ],
        [
          -88.45302211613634,
          28.825045636398784
        ],
        [
          -88.40444687110666,
          28.832900966674554
        ],
        [
          -88.38825021592973,
          28.888549204441176
        ],
        [
          -88.37534588798381,
          28.993309467023483
        ],
        [
          -88.45226830439486,
          29.219416209129417
        ],
        [
          -88.45479793903162,
          29.22372465983912
        ],
        [
          -88.4719501774465,
          29.240479349396328
        ],
        [
          -88.58074340937006,
          29.33690904387166
        ],
        [
          -88.64679323690538,
          29.39468172697027
        ],
        [
          -88.69557328155607,
          29.41003446674224
        ],
        [
          -88.7275163406219,
          29.399495466597138
        ],
        [
          -89.19189050744875,
          29.213130179948422
        ]
      ]
    ]
  }
}