{
  "type": "Feature",
  "properties": {
    "description": "Probable oil-spill origin area",
    "observation_time": "2018-08-21T12:00:00Z",
    "estimated_origin_time": "2018-08-20T12:00:00Z",
    "particle_count": 500
  },
  "geometry": {
    "type": "Polygon",
    "coordinates": [
      [
        [
          -88.56996349415961,
          28.712115975768935
        ],
        [
          -88.51780781444428,
          29.03889594009036
        ],
        [
          -88.53726973415111,
          29.111984649027775
        ],
        [
          -88.61068058795873,
          29.120036504834047
        ],
        [
          -89.05155156109373,
          29.130757273246363
        ],
        [
          -89.06577772757007,
          29.130677840385236
        ],
        [
          -89.24958518113722,
          28.857111881877078
        ],
        [
          -89.27658350058194,
          28.815026015375736
        ],
        [
          -89.28228953274362,
          28.798157021673198
        ],
        [
          -89.25997868501874,
          28.783345185254607
        ],
        [
          -89.1125618448149,
          28.70104805671309
        ],
        [
          -89.06320505806768,
          28.69819397669572
        ],
        [
          -88.56996349415961,
          28.712115975768935
        ]
      ]
    ]
  }
}